{
  "type": "FeatureCollection",
  "features": [
    {
      "type": "Feature",
      "properties": {
        "norad_id": 34121,
        "name": "COSMOS 2251 DEB",
        "group": "cosmos-2251-debris",
        "lat": -67.55282458436153,
        "lon": 28.187653977252253,
        "alt_km": 755.7994366002495,
        "timestamp": "2025-12-27T07:26:25.614343+00:00",
        "meta_object_name": "COSMOS 2251 DEB",
        "meta_object_id": "1993-036KS",
        "meta_epoch": "2025-12-26T22:00:28.156320",
        "meta_mean_motion": 13.9198506,
        "meta_eccentricity": 0.02411579,
        "meta_inclination": 73.993,
        "meta_ra_of_asc_node": 72.8742,
        "meta_arg_of_pericenter": 275.3751,
        "meta_mean_anomaly": 201.3085,
        "meta_ephemeris_type": 0,
        "meta_classification_type": "U",
        "meta_norad_cat_id": 34121,
        "meta_element_set_no": 999,
        "meta_rev_at_epoch": 85322,
        "meta_bstar": 0.0015800851,
        "meta_mean_motion_dot": 2.532e-05,
        "meta_mean_motion_ddot": 0,
        "tle_line1": "1 34121U 93036KS  25360.91699255  .00002532  00000+0  15801-2 0  9992",
        "tle_line2": "2 34121  73.9930  72.8742 0241157 275.3751 201.3085 13.91985060853225"
      },
      "geometry": {
        "type": "Point",
        "coordinates": [
          28.187653977252253,
          -67.55282458436153
        ]
      }
    },
    {
      "type": "Feature",
      "properties": {
        "norad_id": 34122,
        "name": "COSMOS 2251 DEB",
        "group": "cosmos-2251-debris",
        "lat": 48.492756094746554,
        "lon": 109.47313523965575,
        "alt_km": 648.5651559954695,
        "timestamp": "2025-12-27T07:26:25.614353+00:00",
        "meta_object_name": "COSMOS 2251 DEB",
        "meta_object_id": "1993-036KT",
        "meta_epoch": "2025-12-26T17:09:14.970240",
        "meta_mean_motion": 14.65207523,
        "meta_eccentricity": 0.00851543,
        "meta_inclination": 74.036,
        "meta_ra_of_asc_node": 91.7452,
        "meta_arg_of_pericenter": 344.7085,
        "meta_mean_anomaly": 167.0548,
        "meta_ephemeris_type": 0,
        "meta_classification_type": "U",
        "meta_norad_cat_id": 34122,
        "meta_element_set_no": 999,
        "meta_rev_at_epoch": 88889,
        "meta_bstar": 0.0010713543,
        "meta_mean_motion_dot": 6.056e-05,
        "meta_mean_motion_ddot": 0,
        "tle_line1": "1 34122U 93036KT  25360.71475660  .00006056  00000+0  10714-2 0  9996",
        "tle_line2": "2 34122  74.0360  91.7452 0085154 344.7085 167.0548 14.65207523888893"
      },
      "geometry": {
        "type": "Point",
        "coordinates": [
          109.47313523965575,
          48.492756094746554
        ]
      }
    },
    {
      "type": "Feature",
      "properties": {
        "norad_id": 34127,
        "name": "COSMOS 2251 DEB",
        "group": "cosmos-2251-debris",
        "lat": 4.51433288562976,
        "lon": 18.812432487920233,
        "alt_km": 859.1989106007914,
        "timestamp": "2025-12-27T07:26:25.614364+00:00",
        "meta_object_name": "COSMOS 2251 DEB",
        "meta_object_id": "1993-036KY",
        "meta_epoch": "2025-12-26T12:00:14.305248",
        "meta_mean_motion": 14.31664332,
        "meta_eccentricity": 0.0114466,
        "meta_inclination": 74.1802,
        "meta_ra_of_asc_node": 18.9928,
        "meta_arg_of_pericenter": 216.1466,
        "meta_mean_anomaly": 295.7094,
        "meta_ephemeris_type": 0,
        "meta_classification_type": "U",
        "meta_norad_cat_id": 34127,
        "meta_element_set_no": 999,
        "meta_rev_at_epoch": 86968,
        "meta_bstar": 0.0015007,
        "meta_mean_motion_dot": 4.276e-05,
        "meta_mean_motion_ddot": 0,
        "tle_line1": "1 34127U 93036KY  25360.50016557  .00004276  00000+0  15007-2 0  9996",
        "tle_line2": "2 34127  74.1802  18.9928 0114466 216.1466 295.7094 14.31664332869682"
      },
      "geometry": {
        "type": "Point",
        "coordinates": [
          18.812432487920233,
          4.51433288562976
        ]
      }
    },
    {
      "type": "Feature",
      "properties": {
        "norad_id": 34128,
        "name": "COSMOS 2251 DEB",
        "group": "cosmos-2251-debris",
        "lat": -73.97788672340755,
        "lon": 174.94142199614436,
        "alt_km": 573.6834486506532,
        "timestamp": "2025-12-27T07:26:25.614374+00:00",
        "meta_object_name": "COSMOS 2251 DEB",
        "meta_object_id": "1993-036KZ",
        "meta_epoch": "2025-12-26T20:59:32.714016",
        "meta_mean_motion": 15.01699706,
        "meta_eccentricity": 0.0026031,
        "meta_inclination": 73.9979,
        "meta_ra_of_asc_node": 267.8658,
        "meta_arg_of_pericenter": 17.0625,
        "meta_mean_anomaly": 60.1795,
        "meta_ephemeris_type": 0,
        "meta_classification_type": "U",
        "meta_norad_cat_id": 34128,
        "meta_element_set_no": 999,
        "meta_rev_at_epoch": 89379,
        "meta_bstar": 0.0014252046,
        "meta_mean_motion_dot": 0.00018678,
        "meta_mean_motion_ddot": 0,
        "tle_line1": "1 34128U 93036KZ  25360.87468419  .00018678  00000+0  14252-2 0  9997",
        "tle_line2": "2 34128  73.9979 267.8658 0026031  17.0625  60.1795 15.01699706893797"
      },
      "geometry": {
        "type": "Point",
        "coordinates": [
          174.94142199614436,
          -73.97788672340755
        ]
      }
    },
    {
      "type": "Feature",
      "properties": {
        "norad_id": 34129,
        "name": "COSMOS 2251 DEB",
        "group": "cosmos-2251-debris",
        "lat": -67.22364952052585,
        "lon": -91.97301592084308,
        "alt_km": 653.5941318709984,
        "timestamp": "2025-12-27T07:26:25.614384+00:00",
        "meta_object_name": "COSMOS 2251 DEB",
        "meta_object_id": "1993-036LA",
        "meta_epoch": "2025-12-26T22:00:43.871616",
        "meta_mean_motion": 14.7600557,
        "meta_eccentricity": 0.00336251,
        "meta_inclination": 74.0356,
        "meta_ra_of_asc_node": 311.7789,
        "meta_arg_of_pericenter": 29.1998,
        "meta_mean_anomaly": 331.1046,
        "meta_ephemeris_type": 0,
        "meta_classification_type": "U",
        "meta_norad_cat_id": 34129,
        "meta_element_set_no": 999,
        "meta_rev_at_epoch": 61507,
        "meta_bstar": 0.0018009371,
        "meta_mean_motion_dot": 0.00012508,
        "meta_mean_motion_ddot": 0,
        "tle_line1": "1 34129U 93036LA  25360.91717444  .00012508  00000+0  18009-2 0  9998",
        "tle_line2": "2 34129  74.0356 311.7789 0033625  29.1998 331.1046 14.76005570615071"
      },
      "geometry": {
        "type": "Point",
        "coordinates": [
          -91.97301592084308,
          -67.22364952052585
        ]
      }
    },
    {
      "type": "Feature",
      "properties": {
        "norad_id": 34136,
        "name": "COSMOS 2251 DEB",
        "group": "cosmos-2251-debris",
        "lat": -52.22429364305362,
        "lon": -7.80568496757361,
        "alt_km": 694.3041021026738,
        "timestamp": "2025-12-27T07:26:25.614394+00:00",
        "meta_object_name": "COSMOS 2251 DEB",
        "meta_object_id": "1993-036LH",
        "meta_epoch": "2025-12-26T11:16:59.568096",
        "meta_mean_motion": 14.8016249,
        "meta_eccentricity": 0.0084895,
        "meta_inclination": 74.02,
        "meta_ra_of_asc_node": 15.5507,
        "meta_arg_of_pericenter": 134.7343,
        "meta_mean_anomaly": 16.3589,
        "meta_ephemeris_type": 0,
        "meta_classification_type": "U",
        "meta_norad_cat_id": 34136,
        "meta_element_set_no": 999,
        "meta_rev_at_epoch": 90213,
        "meta_bstar": 0.00036087,
        "meta_mean_motion_dot": 2.878e-05,
        "meta_mean_motion_ddot": 0,
        "tle_line1": "1 34136U 93036LH  25360.47013389  .00002878  00000+0  36087-3 0  9990",
        "tle_line2": "2 34136  74.0200  15.5507 0084895 134.7343  16.3589 14.80162490902136"
      },
      "geometry": {
        "type": "Point",
        "coordinates": [
          -7.80568496757361,
          -52.22429364305362
        ]
      }
    },
    {
      "type": "Feature",
      "properties": {
        "norad_id": 34139,
        "name": "COSMOS 2251 DEB",
        "group": "cosmos-2251-debris",
        "lat": 7.0142724915967785,
        "lon": -131.69248036512772,
        "alt_km": 688.1240945844474,
        "timestamp": "2025-12-27T07:26:25.614405+00:00",
        "meta_object_name": "COSMOS 2251 DEB",
        "meta_object_id": "1993-036LL",
        "meta_epoch": "2025-12-26T21:36:15.398208",
        "meta_mean_motion": 14.59243346,
        "meta_eccentricity": 0.00423915,
        "meta_inclination": 74.0297,
        "meta_ra_of_asc_node": 227.0694,
        "meta_arg_of_pericenter": 295.8358,
        "meta_mean_anomaly": 78.988,
        "meta_ephemeris_type": 0,
        "meta_classification_type": "U",
        "meta_norad_cat_id": 34139,
        "meta_element_set_no": 999,
        "meta_rev_at_epoch": 88356,
        "meta_bstar": 0.0015477016,
        "meta_mean_motion_dot": 7.375e-05,
        "meta_mean_motion_ddot": 0,
        "tle_line1": "1 34139U 93036LL  25360.90017822  .00007375  00000+0  15477-2 0  9993",
        "tle_line2": "2 34139  74.0297 227.0694 0042391 295.8358  78.9880 14.59243346883561"
      },
      "geometry": {
        "type": "Point",
        "coordinates": [
          -131.69248036512772,
          7.0142724915967785
        ]
      }
    }
  ]
}